[{"OBJECT_NAME":"LMRST-SAT","OBJECT_ID":"2015-058H","EPOCH":"2026-03-09T17:22:48.893664","MEAN_MOTION":14.89988841,"ECCENTRICITY":0.01310128,"INCLINATION":64.7755,"RA_OF_ASC_NODE":224.0879,"ARG_OF_PERICENTER":97.8444,"MEAN_ANOMALY":263.7563,"EPHEMERIS_TYPE":0,"CLASSIFICATION_TYPE":"U","NORAD_CAT_ID":40971,"ELEMENT_SET_NO":999,"REV_AT_EPOCH":9873,"BSTAR":0.00042420191,"MEAN_MOTION_DOT":4.653e-5,"MEAN_MOTION_DDOT":0},{"OBJECT_NAME":"DELTA 1 DEB","OBJECT_ID":"1972-058EM","EPOCH":"2026-03-09T16:44:18.642336","MEAN_MOTION":14.54352668,"ECCENTRICITY":0.01334206,"INCLINATION":98.6262,"RA_OF_ASC_NODE":123.6651,"ARG_OF_PERICENTER":23.559,"MEAN_ANOMALY":337.1641,"EPHEMERIS_TYPE":0,"CLASSIFICATION_TYPE":"U","NORAD_CAT_ID":8319,"ELEMENT_SET_NO":999,"REV_AT_EPOCH":80320,"BSTAR":0.00016623402,"MEAN_MOTION_DOT":7.39e-6,"MEAN_MOTION_DDOT":0}]
